NORAD_CAT_ID,OBJECT_NAME,OBJECT_TYPE,EPOCH,MEAN_MOTION,ECCENTRICITY,INCLINATION,RA_OF_ASC_NODE,ARG_OF_PERICENTER,MEAN_ANOMALY,BSTAR,MEAN_MOTION_DOT,MEAN_MOTION_DDOT,TLE_LINE0,TLE_LINE1,TLE_LINE2,SEMIMAJOR_AXIS,PERIOD,APOGEE,PERIGEE,DECAYED
55952.0,STARLINK-5893,PAYLOAD,2023-09-11 14:00:01,15.46928768,0.0003521,69.9999,41.7666,273.6753,47.9779,-0.020671,-0.00957353,0.0,0 STARLINK-5893,1 55952U 23037AQ  23254.58334491 -.00957353  00000-0 -20671-1 0  9995,2 55952  69.9999  41.7666 0003521 273.6753  47.9779 15.46928768 28428,6803.854,93.088,428.114,423.323,0.0
55952.0,STARLINK-5893,PAYLOAD,2023-09-12 06:00:00,15.45557338,0.0003434,69.9999,39.9576,274.9505,156.6118,-0.01909,-0.00840703,0.0,0 STARLINK-5893,1 55952U 23037AQ  23255.25001157 -.00840703  00000-0 -19090-1 0  9993,2 55952  69.9999  39.9576 0003434 274.9505 156.6118 15.45557338 28525,6807.878,93.17,432.081,427.405,0.0
55952.0,STARLINK-5893,PAYLOAD,2023-09-12 14:00:01,15.44967248,0.0003475,70.0,39.0544,277.7166,207.6617,-0.02201,-0.00953076,0.0,0 STARLINK-5893,1 55952U 23037AQ  23255.58335648 -.00953076  00000-0 -22010-1 0  9998,2 55952  70.0000  39.0544 0003475 277.7166 207.6617 15.44967248  5953,6809.611,93.206,433.843,429.11,0.0
55952.0,STARLINK-5893,PAYLOAD,2023-09-12 22:00:00,15.44300995,0.0003441,69.9997,38.152,280.7919,257.5136,-0.021837,-0.00926586,0.0,0 STARLINK-5893,1 55952U 23037AQ  23255.91667824 -.00926586  00000-0 -21837-1 0  9991,2 55952  69.9997  38.1520 0003441 280.7919 257.5136 15.44300995  6010,6811.57,93.246,435.779,431.091,0.0
55952.0,STARLINK-5893,PAYLOAD,2023-09-13 14:00:01,15.43005755,0.0003556,70.0005,36.3501,276.1207,5.813,-0.023337,-0.00945985,0.0,0 STARLINK-5893,1 55952U 23037AQ  23256.58334491 -.00945985  00000-0 -23337-1 0  9997,2 55952  70.0005  36.3501 0003556 276.1207   5.8130 15.43005755  5964,6815.381,93.324,439.67,434.823,0.0
55952.0,STARLINK-5893,PAYLOAD,2023-09-13 22:00:00,15.42342558,0.0003679,70.0001,35.4503,280.1069,52.4692,-0.023245,-0.0092342,0.0,0 STARLINK-5893,1 55952U 23037AQ  23256.91667824 -.00923420  00000-0 -23245-1 0  9991,2 55952  70.0001  35.4503 0003679 280.1069  52.4692 15.42342558  6011,6817.335,93.364,441.708,436.692,0.0
55952.0,STARLINK-5893,PAYLOAD,2023-09-14 06:00:00,15.41647078,0.000355,70.0002,34.5516,274.755,107.6927,-0.021874,-0.00854394,0.0,0 STARLINK-5893,1 55952U 23037AQ  23257.25001157 -.00854394  00000-0 -21874-1 0  9999,2 55952  70.0002  34.5516 0003550 274.7550 107.6927 15.41647078 28830,6819.385,93.407,443.671,438.829,0.0
55952.0,STARLINK-5893,PAYLOAD,2023-09-14 14:00:01,15.41047944,0.0003543,70.0007,33.6538,278.0786,153.4964,-0.024892,-0.00944961,0.0,0 STARLINK-5893,1 55952U 23037AQ  23257.58335648 -.00944961  00000-0 -24892-1 0  9993,2 55952  70.0007  33.6538 0003543 278.0786 153.4964 15.41047944  6022,6821.152,93.443,445.434,440.6,0.0
55952.0,STARLINK-5893,PAYLOAD,2023-09-14 22:00:00,15.40388939,0.000343,70.0004,32.7567,280.456,199.3487,-0.024973,-0.00928865,0.0,0 STARLINK-5893,1 55952U 23037AQ  23257.91667824 -.00928865  00000-0 -24973-1 0  9999,2 55952  70.0004  32.7567 0003430 280.4560 199.3487 15.40388939 28937,6823.098,93.483,447.303,442.622,0.0
55952.0,STARLINK-5893,PAYLOAD,2023-09-15 14:00:01,15.39081292,0.00033,70.0008,30.9656,273.0239,301.0267,-0.026062,-0.009284,0.0,0 STARLINK-5893,1 55952U 23037AQ  23258.58334491 -.00928400  00000-0 -26062-1 0  9990,2 55952  70.0008  30.9656 0003300 273.0239 301.0267 15.39081292  5974,6826.962,93.562,451.08,446.574,0.0
55952.0,STARLINK-5893,PAYLOAD,2023-09-16 06:00:00,15.3773404,0.000344,70.0009,29.1782,270.0551,35.1175,-0.024798,-0.00851471,0.0,0 STARLINK-5893,1 55952U 23037AQ  23259.25001157 -.00851471  00000-0 -24798-1 0  9992,2 55952  70.0009  29.1782 0003440 270.0551  35.1175 15.37734040 29146,6830.949,93.644,455.164,450.464,0.0
55952.0,STARLINK-5893,PAYLOAD,2023-09-16 14:00:01,15.37124399,0.0003512,70.001,28.2858,274.2713,75.2755,-0.02778,-0.0092837,0.0,0 STARLINK-5893,1 55952U 23037AQ  23259.58334491 -.00928370  00000-0 -27780-1 0  9995,2 55952  70.0010  28.2858 0003512 274.2713  75.2755 15.37124399  6018,6832.755,93.681,457.019,452.22,0.0
55952.0,STARLINK-5893,PAYLOAD,2023-09-16 22:00:00,15.36481564,0.0003504,70.0008,27.3942,278.8749,114.2677,-0.028784,-0.00940966,0.0,0 STARLINK-5893,1 55952U 23037AQ  23259.91667824 -.00940966  00000-0 -28784-1 0  9991,2 55952  70.0008  27.3942 0003504 278.8749 114.2677 15.36481564 29245,6834.66,93.721,458.92,454.131,0.0
55952.0,STARLINK-5893,PAYLOAD,2023-09-17 14:00:01,15.35167725,0.0003391,70.0014,25.6137,277.0421,200.9612,-0.029666,-0.00930534,0.0,0 STARLINK-5893,1 55952U 23037AQ  23260.58334491 -.00930534  00000-0 -29666-1 0  9997,2 55952  70.0014  25.6137 0003391 277.0421 200.9612 15.35167725  6023,6838.559,93.801,462.743,458.105,0.0
55952.0,STARLINK-5893,PAYLOAD,2023-09-17 22:00:00,15.34524898,0.0003281,70.0011,24.7245,279.3567,239.8956,-0.030713,-0.00942644,0.0,0 STARLINK-5893,1 55952U 23037AQ  23260.91667824 -.00942644  00000-0 -30713-1 0  9993,2 55952  70.0011  24.7245 0003281 279.3567 239.8956 15.34524898 29398,6840.469,93.84,464.578,460.09,0.0
55952.0,STARLINK-5893,PAYLOAD,2023-09-18 14:00:01,15.33206875,0.0003364,70.0015,22.9492,275.0221,324.3975,-0.031294,-0.00922841,0.0,0 STARLINK-5893,1 55952U 23037AQ  23261.58334491 -.00922841  00000-0 -31294-1 0  9990,2 55952  70.0015  22.9492 0003364 275.0221 324.3975 15.33206875 29503,6844.389,93.921,468.556,463.951,0.0
55952.0,STARLINK-5893,PAYLOAD,2023-09-18 22:00:00,15.32570011,0.0003374,70.001,22.0628,276.5959,1.7237,-0.032871,-0.00947765,0.0,0 STARLINK-5893,1 55952U 23037AQ  23261.91667824 -.00947765  00000-0 -32871-1 0  9990,2 55952  70.0010  22.0628 0003374 276.5959   1.7237 15.32570011  5983,6846.285,93.96,470.46,465.84,0.0
55952.0,STARLINK-5893,PAYLOAD,2023-09-19 22:00:00,15.30611591,0.0003445,70.0009,19.4088,278.6245,111.7232,-0.034822,-0.00944563,0.0,0 STARLINK-5893,1 55952U 23037AQ  23262.91667824 -.00944563  00000-0 -34822-1 0  9992,2 55952  70.0009  19.4088 0003445 278.6245 111.7232 15.30611591 29701,6852.123,94.08,476.349,471.628,0.0
55952.0,STARLINK-5893,PAYLOAD,2023-09-20 14:00:01,15.29291258,0.000341,70.0011,17.644,278.5228,182.6052,-0.035231,-0.00919532,0.0,0 STARLINK-5893,1 55952U 23037AQ  23263.58334491 -.00919532  00000-0 -35231-1 0  9990,2 55952  70.0011  17.6440 0003410 278.5228 182.6052 15.29291258 29808,6856.067,94.161,480.27,475.594,0.0
55952.0,STARLINK-5893,PAYLOAD,2023-09-20 22:00:00,15.28654516,0.0003288,70.0007,16.7627,279.8494,215.4853,-0.03697,-0.00955976,0.0,0 STARLINK-5893,1 55952U 23037AQ  23263.91667824 -.00955976  00000-0 -36970-1 0  9999,2 55952  70.0007  16.7627 0003288 279.8494 215.4853 15.28654516  6013,6857.97,94.2,482.09,477.581,0.0
55952.0,STARLINK-5893,PAYLOAD,2023-09-21 14:00:01,15.27326105,0.0003326,70.0007,15.0032,278.3729,283.0512,-0.036846,-0.00906506,0.0,0 STARLINK-5893,1 55952U 23037AQ  23264.58334491 -.00906506  00000-0 -36846-1 0  9991,2 55952  70.0007  15.0032 0003326 278.3729 283.0512 15.27326105  6026,6861.946,94.282,486.094,481.529,0.0
55952.0,STARLINK-5893,PAYLOAD,2023-09-21 22:00:01,15.26699332,0.0003276,70.0005,14.1247,278.3736,314.9711,-0.039445,-0.00960461,0.0,0 STARLINK-5893,1 55952U 23037AQ  23264.91668981 -.00960461  00000-0 -39445-1 0  9990,2 55952  70.0005  14.1247 0003276 278.3736 314.9711 15.26699332 30019,6863.824,94.321,487.938,483.441,0.0
55952.0,STARLINK-5893,PAYLOAD,2023-09-22 14:00:01,15.25367858,0.0003413,70.0005,12.3705,278.5249,16.152,-0.038942,-0.00914278,0.0,0 STARLINK-5893,1 55952U 23037AQ  23265.58334491 -.00914278  00000-0 -38942-1 0  9996,2 55952  70.0005  12.3705 0003413 278.5249  16.1520 15.25367858 30116,6867.818,94.403,492.027,487.339,0.0
55952.0,STARLINK-5893,PAYLOAD,2023-09-22 22:00:00,15.24742376,0.0003434,70.0003,11.4944,279.2268,44.9604,-0.041906,-0.00961758,0.0,0 STARLINK-5893,1 55952U 23037AQ  23265.91667824 -.00961758  00000-0 -41906-1 0  9991,2 55952  70.0003  11.4944 0003434 279.2268  44.9604 15.24742376  6027,6869.696,94.442,493.92,489.202,0.0
55952.0,STARLINK-5893,PAYLOAD,2023-09-23 14:00:01,15.2341332,0.000339,70.0005,9.7454,277.4939,103.3931,-0.041351,-0.00915529,0.0,0 STARLINK-5893,1 55952U 23037AQ  23266.58334491 -.00915529  00000-0 -41351-1 0  9995,2 55952  70.0005   9.7454 0003390 277.4939 103.3931 15.23413320 30260,6873.691,94.525,497.886,493.226,0.0
55952.0,STARLINK-5893,PAYLOAD,2023-09-24 14:00:01,15.21456185,0.0003318,70.0008,7.1282,278.5523,181.5076,-0.04392,-0.00917489,0.0,0 STARLINK-5893,1 55952U 23037AQ  23267.58334491 -.00917489  00000-0 -43920-1 0  9997,2 55952  70.0008   7.1282 0003318 278.5523 181.5076 15.21456185 30414,6879.584,94.646,503.732,499.167,0.0
55952.0,STARLINK-5893,PAYLOAD,2023-09-24 22:00:00,15.20827193,0.0003261,70.0006,6.2574,278.6568,206.2208,-0.046986,-0.00960126,0.0,0 STARLINK-5893,1 55952U 23037AQ  23267.91667824 -.00960126  00000-0 -46986-1 0  9994,2 55952  70.0006   6.2574 0003261 278.6568 206.2208 15.20827193  6014,6881.481,94.685,505.59,501.102,0.0
55952.0,STARLINK-5893,PAYLOAD,2023-09-25 14:00:01,15.19495735,0.0003224,70.0011,4.5189,278.4865,253.7691,-0.04619,-0.00911519,0.0,0 STARLINK-5893,1 55952U 23037AQ  23268.58335648 -.00911519  00000-0 -46190-1 0  9993,2 55952  70.0011   4.5189 0003224 278.4865 253.7691 15.19495735 30572,6885.501,94.768,509.585,505.146,0.0
55952.0,STARLINK-5893,PAYLOAD,2023-09-26 00:00:00,15.18688295,0.0003288,70.0012,3.4339,274.5648,15.6015,-0.048556,-0.00934232,0.0,0 STARLINK-5893,1 55952U 23037AQ  23269.00001157 -.00934232  00000-0 -48556-1 0  9991,2 55952  70.0012   3.4339 0003288 274.5648  15.6015 15.18688295  5979,6887.941,94.819,512.071,507.541,0.0
55952.0,STARLINK-5893,PAYLOAD,2023-09-26 14:00:01,15.17536116,0.0003214,70.0015,1.9175,277.8027,319.544,-0.048572,-0.0090607,0.0,0 STARLINK-5893,1 55952U 23037AQ  23269.58335648 -.00906070  00000-0 -48572-1 0  9996,2 55952  70.0015   1.9175 0003214 277.8027 319.5440 15.17536116 30721,6891.427,94.891,515.507,511.077,0.0
